NORAD_CAT_ID,OBJECT_NAME,OBJECT_TYPE,EPOCH,MEAN_MOTION,ECCENTRICITY,INCLINATION,RA_OF_ASC_NODE,ARG_OF_PERICENTER,MEAN_ANOMALY,BSTAR,MEAN_MOTION_DOT,MEAN_MOTION_DDOT,TLE_LINE0,TLE_LINE1,TLE_LINE2,SEMIMAJOR_AXIS,PERIOD,APOGEE,PERIGEE,DECAYED
52869.0,STARLINK-4266,PAYLOAD,2022-12-28 16:33:52,15.08848144,0.0002198,53.2158,212.974,32.2206,327.892,-0.00011198,-2.071e-05,0.0,0 STARLINK-4266,1 52869U 22062AR  22362.69019182 -.00002071  00000-0 -11198-3 0  9998,2 52869  53.2158 212.9740 0002198  32.2206 327.8920 15.08848144 29887,6917.855,95.437,541.241,538.2,0.0
52869.0,STARLINK-4266,PAYLOAD,2022-12-28 22:55:25,15.08839887,0.0002245,53.2159,211.7848,32.8852,327.2279,-0.00026557,-4.513e-05,0.0,0 STARLINK-4266,1 52869U 22062AR  22362.95515310 -.00004513  00000-0 -26557-3 0  9999,2 52869  53.2159 211.7848 0002245  32.8852 327.2279 15.08839887 30416,6917.880999999999,95.438,541.299,538.193,0.0
52869.0,STARLINK-4266,PAYLOAD,2022-12-29 08:27:44,15.08837887,0.0002378,53.2155,210.0009,33.082,327.032,-0.00015631,-2.775e-05,0.0,0 STARLINK-4266,1 52869U 22062AR  22363.35259654 -.00002775  00000-0 -15631-3 0  9999,2 52869  53.2155 210.0009 0002378  33.0820 327.0320 15.08837887 29981,6917.887,95.438,541.3969999999998,538.107,0.0
52869.0,STARLINK-4266,PAYLOAD,2022-12-30 00:21:37,15.08833256,0.0002264,53.2161,207.0269,36.8493,323.2654,-0.00014104,-2.532e-05,0.0,0 STARLINK-4266,1 52869U 22062AR  22364.01501288 -.00002532  00000-0 -14104-3 0  9991,2 52869  53.2161 207.0269 0002264  36.8493 323.2654 15.08833256 30574,6917.901,95.438,541.332,538.2,0.0
52869.0,STARLINK-4266,PAYLOAD,2022-12-30 06:43:09,15.08834813,0.0002272,53.2162,205.8379,35.6258,324.4885,-0.00010611,-1.976e-05,0.0,0 STARLINK-4266,1 52869U 22062AR  22364.27997231 -.00001976  00000-0 -10611-3 0  9996,2 52869  53.2162 205.8379 0002272  35.6258 324.4885 15.08834813 30128,6917.896,95.438,541.3330000000002,538.189,0.0
52869.0,STARLINK-4266,PAYLOAD,2022-12-31 06:33:55,15.08850209,0.0002399999999999,53.2164,201.3771,34.7045,325.4103,0.00023156,3.4e-05,0.0,0 STARLINK-4266,1 52869U 22062AR  22365.27356066  .00003400  00000-0  23156-3 0  9992,2 52869  53.2164 201.3771 0002400  34.7045 325.4103 15.08850209 30765,6917.849,95.437,541.374,538.054,0.0
52869.0,STARLINK-4266,PAYLOAD,2022-12-31 12:55:28,15.08847677,0.0002339,53.2164,200.1877,34.0254,326.0888,0.00036215,5.481e-05,0.0,0 STARLINK-4266,1 52869U 22062AR  22365.53852114  .00005481  00000-0  36215-3 0  9997,2 52869  53.2164 200.1877 0002339  34.0254 326.0888 15.08847677 30318,6917.857,95.437,541.34,538.104,0.0
52869.0,STARLINK-4266,PAYLOAD,2022-12-31 19:17:01,15.08849216,0.0002444,53.2156,198.9982,34.3311,325.7838,0.00041815,6.375e-05,0.0,0 STARLINK-4266,1 52869U 22062AR  22365.80348689  .00006375  00000-0  41815-3 0  9999,2 52869  53.2156 198.9982 0002444  34.3311 325.7838 15.08849216 30844,6917.852,95.437,541.408,538.026,0.0
52869.0,STARLINK-4266,PAYLOAD,2023-01-01 06:24:43,15.08849062,0.0002508999999999,53.2173,196.9171,36.2943,323.8219,0.00024548,3.622e-05,0.0,0 STARLINK-4266,1 52869U 22062AR  23001.26716698  .00003622  00000-0  24548-3 0  9992,2 52869  53.2173 196.9171 0002509  36.2943 323.8219 15.08849062 30914,6917.853,95.437,541.453,537.982,0.0
52869.0,STARLINK-4266,PAYLOAD,2023-01-01 20:43:11,15.08845053,0.0002515,53.2166,194.2417,34.3672,325.7483,-1.161e-05,-4.73e-06,0.0,0 STARLINK-4266,1 52869U 22062AR  23001.86332480 -.00000473  00000-0 -11610-4 0  9991,2 52869  53.2166 194.2417 0002515  34.3672 325.7483 15.08845053 30511,6917.865,95.437,541.47,537.99,0.0
52869.0,STARLINK-4266,PAYLOAD,2023-01-01 22:18:34,15.08841872,0.0002614,53.216,193.9457,31.0353,329.0793,7.6577e-05,9.31e-06,0.0,0 STARLINK-4266,1 52869U 22062AR  23001.92956798  .00000931  00000-0  76577-4 0  9992,2 52869  53.2160 193.9457 0002614  31.0353 329.0793 15.08841872 31017,6917.875,95.437,541.548,537.931,0.0
52869.0,STARLINK-4266,PAYLOAD,2023-01-02 12:37:02,15.08845529,0.0002513,53.2167,191.2674,36.3565,323.7597,-6.2965e-05,-1.291e-05,0.0,0 STARLINK-4266,1 52869U 22062AR  23002.52572752 -.00001291  00000-0 -62965-4 0  9991,2 52869  53.2167 191.2674 0002513  36.3565 323.7597 15.08845529 30618,6917.863,95.437,541.467,537.99,0.0
52869.0,STARLINK-4266,PAYLOAD,2023-01-02 18:58:35,15.08845624,0.0002488,53.2165,190.0775,37.3801,322.7364,-6.3938e-05,-1.306e-05,0.0,0 STARLINK-4266,1 52869U 22062AR  23002.79068592 -.00001306  00000-0 -63938-4 0  9990,2 52869  53.2165 190.0775 0002488  37.3801 322.7364 15.08845624 30651,6917.863,95.437,541.4490000000002,538.007,0.0
52869.0,STARLINK-4266,PAYLOAD,2023-01-03 12:27:48,15.08873382,0.0002622,53.2164,186.8062,34.7822,325.3341,-0.00038033,-6.342e-05,0.0,0 STARLINK-4266,1 52869U 22062AR  23003.51931532 -.00006342  00000-0 -38033-3 0  9996,2 52869  53.2164 186.8062 0002622  34.7822 325.3341 15.08873382 31259,6917.778,95.435,541.457,537.83,0.0
52869.0,STARLINK-4266,PAYLOAD,2023-01-04 04:21:40,15.08844135,0.0002581,53.2164,183.8326,40.3811,319.7372,0.00016127,2.279e-05,0.0,0 STARLINK-4266,1 52869U 22062AR  23004.18171926  .00002279  00000-0  16127-3 0  9996,2 52869  53.2164 183.8326 0002581  40.3811 319.7372 15.08844135 31350,6917.868,95.437,541.518,537.947,0.0
52869.0,STARLINK-4266,PAYLOAD,2023-01-04 12:18:36,15.08841818,0.0002599,53.2162,182.3456,41.6107,318.5083,0.00010209,1.337e-05,0.0,0 STARLINK-4266,1 52869U 22062AR  23004.51292205  .00001337  00000-0  10209-3 0  9996,2 52869  53.2162 182.3456 0002599  41.6107 318.5083 15.08841818 30919,6917.875,95.437,541.538,537.942,0.0
52869.0,STARLINK-4266,PAYLOAD,2023-01-04 18:40:09,15.08838193,0.0002614,53.2163,181.1561,41.9531,318.1661,6.3947e-05,7.29e-06,0.0,0 STARLINK-4266,1 52869U 22062AR  23004.77788510  .00000729  00000-0  63947-4 0  9995,2 52869  53.2163 181.1561 0002614  41.9531 318.1661 15.08838193 31445,6917.886,95.438,541.559,537.943,0.0
52869.0,STARLINK-4266,PAYLOAD,2023-01-05 12:09:23,15.08853064,0.0002548,53.2176,177.8856,36.2095,323.9069,-1.1653e-05,-4.74e-06,0.0,0 STARLINK-4266,1 52869U 22062AR  23005.50651691 -.00000474  00000-0 -11653-4 0  9992,2 52869  53.2176 177.8856 0002548  36.2095 323.9069 15.08853064 31558,6917.84,95.437,541.4680000000002,537.943,0.0
52869.0,STARLINK-4266,PAYLOAD,2023-01-05 18:30:55,15.08851607,0.0002601,53.2163,176.6961,40.9567,319.1620000000001,7.9843e-05,9.83e-06,0.0,0 STARLINK-4266,1 52869U 22062AR  23005.77147275  .00000983  00000-0  79843-4 0  9997,2 52869  53.2163 176.6961 0002601  40.9567 319.1620 15.08851607 31106,6917.845,95.437,541.509,537.911,0.0
52869.0,STARLINK-4266,PAYLOAD,2023-01-06 04:03:14,15.08843244,0.0002658,53.2166,174.9118,41.2883,318.831,-2.8097e-05,-7.36e-06,0.0,0 STARLINK-4266,1 52869U 22062AR  23006.16892023 -.00000736  00000-0 -28097-4 0  9992,2 52869  53.2166 174.9118 0002658  41.2883 318.8310 15.08843244 31651,6917.87,95.437,541.5740000000002,537.8969999999998,0.0
52869.0,STARLINK-4266,PAYLOAD,2023-01-06 13:35:34,15.0880958,0.0002271,53.2158,173.1284,41.3352,318.7812,0.00017802,2.544e-05,0.0,0 STARLINK-4266,1 52869U 22062AR  23006.56637632  .00002544  00000-0  17802-3 0  9997,2 52869  53.2158 173.1284 0002271  41.3352 318.7812 15.08809580 31718,6917.973000000001,95.439,541.409,538.2669999999998,0.0
52869.0,STARLINK-4266,PAYLOAD,2023-01-06 19:57:06,15.08828833,0.0002412,53.2155,171.9395,45.9756,314.1435,-1.1097e-05,-4.65e-06,0.0,0 STARLINK-4266,1 52869U 22062AR  23006.83133063 -.00000465  00000-0 -11097-4 0  9999,2 52869  53.2155 171.9395 0002412  45.9756 314.1435 15.08828833 31262,6917.915,95.438,541.448,538.111,0.0
52869.0,STARLINK-4266,PAYLOAD,2023-01-07 03:54:02,15.08835362,0.0002638,53.2161,170.4518,41.3881,318.7311,-4.6734e-06,-3.63e-06,0.0,0 STARLINK-4266,1 52869U 22062AR  23007.16252775 -.00000363  00000-0 -46734-5 0  9992,2 52869  53.2161 170.4518 0002638  41.3881 318.7311 15.08835362 31807,6917.895,95.438,541.585,537.935,0.0
52869.0,STARLINK-4266,PAYLOAD,2023-01-07 19:47:53,15.08843939,0.0002695,53.2162,167.4779,38.6808,321.4377,6.7921e-05,7.93e-06,0.0,0 STARLINK-4266,1 52869U 22062AR  23007.82492026  .00000793  00000-0  67921-4 0  9995,2 52869  53.2162 167.4779 0002695  38.6808 321.4377 15.08843939 31907,6917.868,95.437,541.5980000000002,537.869,0.0
52869.0,STARLINK-4266,PAYLOAD,2023-01-08 10:06:21,15.08834391,0.00026,53.2164,164.8012,40.442,319.6765,0.0001393,1.929e-05,0.0,0 STARLINK-4266,1 52869U 22062AR  23008.42108314  .00001929  00000-0  13930-3 0  9998,2 52869  53.2164 164.8012 0002600  40.4420 319.6765 15.08834391 31998,6917.898,95.438,541.561,537.964,0.0
52869.0,STARLINK-4266,PAYLOAD,2023-01-08 19:38:40,15.0884107,0.0002623,53.2164,163.017,41.1501,318.9689,0.00014806,2.069e-05,0.0,0 STARLINK-4266,1 52869U 22062AR  23008.81851998  .00002069  00000-0  14806-3 0  9993,2 52869  53.2164 163.0170 0002623  41.1501 318.9689 15.08841070 31569,6917.877,95.437,541.557,537.928,0.0
52869.0,STARLINK-4266,PAYLOAD,2023-01-09 11:32:31,15.08844045,0.0002684,53.2164,160.0434,39.8648,320.2541,6.545e-05,7.53e-06,0.0,0 STARLINK-4266,1 52869U 22062AR  23009.48092117  .00000753  00000-0  65450-4 0  9997,2 52869  53.2164 160.0434 0002684  39.8648 320.2541 15.08844045 31661,6917.868,95.437,541.59,537.876,0.0
52869.0,STARLINK-4266,PAYLOAD,2023-01-09 16:18:40,15.088473,0.0002541,53.2168,159.1518,39.0251,321.0924,8.968299999999999e-05,1.139e-05,0.0,0 STARLINK-4266,1 52869U 22062AR  23009.67963739  .00001139  00000-0  89683-4 0  9998,2 52869  53.2168 159.1518 0002541  39.0251 321.0924 15.08847300 32180,6917.858,95.437,541.481,537.965,0.0
52869.0,STARLINK-4266,PAYLOAD,2023-01-10 12:58:42,15.08835112,0.0002609,53.2156,155.2857,42.4637,317.6556,-1.7414e-05,-5.66e-06,0.0,0 STARLINK-4266,1 52869U 22062AR  23010.54076595 -.00000566  00000-0 -17414-4 0  9999,2 52869  53.2156 155.2857 0002609  42.4637 317.6556 15.08835112 32316,6917.895,95.438,541.565,537.955,0.0
